OBJECT_NAME,OBJECT_ID,EPOCH,MEAN_MOTION,ECCENTRICITY,INCLINATION,RA_OF_ASC_NODE,ARG_OF_PERICENTER,MEAN_ANOMALY,EPHEMERIS_TYPE,CLASSIFICATION_TYPE,NORAD_CAT_ID,ELEMENT_SET_NO,REV_AT_EPOCH,BSTAR,MEAN_MOTION_DOT,MEAN_MOTION_DDOT
STARLINK-5453,2022-175R,2026-06-02T19:51:08.788320,15.08838356,.00017904,53.1877,21.7790,91.2505,268.8692,0,U,54773,999,19277,.17839916E-4,-.4E-7,0
STARLINK-5454,2022-175S,2026-06-02T19:18:38.854368,15.08835170,.00015143,53.1856,6.6846,95.8489,264.2675,0,U,54774,999,19298,.37357445E-4,.306E-5,0
STARLINK-5465,2022-175T,2026-06-02T19:45:50.304960,15.08837228,.00013056,53.1885,21.7564,85.9647,274.1494,0,U,54775,999,19277,-.541867E-5,-.374E-5,0
STARLINK-5470,2022-175U,2026-06-02T19:14:00.326688,15.08832705,.00012901,53.1875,21.6261,64.8920,295.2206,0,U,54776,999,19277,.48577171E-4,.485E-5,0
STARLINK-5468,2022-175V,2026-06-03T05:12:50.533920,15.08835067,.0001147,53.1868,19.9471,103.6022,256.5098,0,U,54777,999,19283,.33602E-4,.247E-5,0
STARLINK-5450,2022-175W,2026-06-02T20:11:42.504288,15.08838255,.00015468,53.1871,6.9033,70.3998,289.7161,0,U,54778,999,19298,.52042137E-4,.54E-5,0
STARLINK-5447,2022-175X,2026-06-02T20:17:00.901248,15.08838801,.00013962,53.1855,6.9253,107.3628,252.7517,0,U,54779,999,19298,-.10422085E-4,-.454E-5,0
STARLINK-5449,2022-175Y,2026-06-02T19:50:29.206752,15.08835961,.00014013,53.1861,6.8078,92.4478,267.6675,0,U,54780,999,19298,.12805206E-4,-.84E-6,0
STARLINK-5443,2022-175Z,2026-06-02T20:06:23.486112,15.08835281,.00013815,53.1871,6.8740,83.7928,276.3221,0,U,54781,999,19298,-.5633086E-5,-.378E-5,0
STARLINK-5439,2022-175AB,2026-06-03T05:33:08.943264,15.09048524,.0005796,53.1884,5.0840,207.7678,152.3006,0,U,54783,999,19304,.13811E-2,.21893E-3,0
STARLINK-5442,2022-175AC,2026-06-02T19:35:13.656192,15.08825778,.000126,53.1870,21.7120,89.0027,271.1109,0,U,54784,999,19277,.19234752E-3,.2773E-4,0
STARLINK-5440,2022-175AD,2026-06-02T17:59:11.520096,15.08840128,.00009815,53.1867,327.1214,112.6322,247.4773,0,U,54785,999,19353,-.20214817E-4,-.61E-5,0
STARLINK-5441,2022-175AF,2026-06-02T19:29:54.665664,15.08834303,.00015919,53.1875,21.6889,115.5545,244.5611,0,U,54787,999,19277,.7458887E-5,-.169E-5,0
STARLINK-5399,2022-175AG,2026-06-02T19:45:10.384704,15.08858692,.00022412,53.1862,6.7908,136.7152,223.4016,0,U,54788,999,19298,-.19729662E-3,-.3429E-4,0
STARLINK-5446,2022-175AH,2026-06-02T19:44:29.965920,15.08836593,.0001534,53.1877,351.6919,105.9220,254.1941,0,U,54789,999,19319,.64093573E-4,.732E-5,0
STARLINK-5445,2022-175AJ,2026-06-02T19:34:34.700160,15.08826513,.00012718,53.1880,6.7451,91.4982,268.6155,0,U,54790,999,19298,-.55822408E-4,-.1176E-4,0
STARLINK-5425,2022-175AK,2026-06-02T19:55:47.760096,15.08834445,.00011667,53.1886,6.8345,86.7913,273.3212,0,U,54791,999,19298,-.7299623E-5,-.404E-5,0
STARLINK-5431,2022-175AL,2026-06-02T19:19:18.593184,15.08840901,.00013911,53.1874,21.6440,90.9181,269.1970,0,U,54792,999,19277,-.71875013E-4,-.1432E-4,0
STARLINK-5433,2022-175AM,2026-06-02T19:57:08.734176,15.08842863,.00012517,53.1887,356.8964,81.5756,278.5377,0,U,54793,999,19312,.15796369E-3,.2227E-4,0
STARLINK-5436,2022-175AP,2026-06-02T19:39:52.437024,15.08839497,.00012181,53.1839,6.7678,86.1115,274.0016,0,U,54795,999,19298,-.47519527E-4,-.1044E-4,0
STARLINK-5415,2022-175AQ,2026-06-02T19:29:14.581248,15.08863828,.00024005,53.1858,6.7198,142.4857,217.6303,0,U,54796,999,19298,-.26507865E-3,-.4508E-4,0
STARLINK-5435,2022-175AR,2026-06-02T19:47:12.887808,15.08837589,.00010995,53.1874,21.7583,93.1732,266.9386,0,U,54797,999,19277,.65803951E-4,.76E-5,0
STARLINK-5420,2022-175AS,2026-06-02T19:25:17.861664,15.08843041,.00014494,53.1883,356.7465,80.5473,279.5682,0,U,54798,999,19312,-.69639981E-4,-.1396E-4,0
STARLINK-5421,2022-175AT,2026-06-02T19:51:49.061952,15.08839349,.000076,53.1866,356.8614,97.0728,263.0350,0,U,54799,999,19312,.26620889E-4,.136E-5,0
STARLINK-5428,2022-175AU,2026-06-02T19:36:32.794272,15.08836367,.00012434,53.1851,11.7198,96.3804,263.7329,0,U,54800,999,19291,.63312982E-4,.72E-5,0
STARLINK-5429,2022-175AV,2026-06-02T19:08:41.891712,15.08832517,.00013714,53.1874,21.5988,67.6070,292.5067,0,U,54801,999,19277,.65951653E-4,.762E-5,0
STARLINK-5426,2022-175AW,2026-06-02T19:01:37.841376,15.08018371,.00013494,53.2178,326.6036,85.6404,274.4742,0,U,54802,999,19354,.27262313E-4,.139E-5,0
STARLINK-5430,2022-175AX,2026-06-02T19:24:36.866592,15.08832384,.00016583,53.1876,21.6493,98.5371,261.5809,0,U,54803,999,19277,.72149784E-4,.86E-5,0
STARLINK-5422,2022-175AY,2026-06-02T18:57:25.312320,15.08838375,.00012377,53.1887,6.5903,84.3589,275.7544,0,U,54804,999,19298,.54261939E-4,.576E-5,0
STARLINK-5417,2022-175AZ,2026-06-03T12:00:22.000032,15.08002027,.0001316,53.2163,3.6839,98.3494,24.3911,0,U,54805,999,583,.27247E-2,.42353E-3,0
