STARLINK-5453           
1 54773U 22175R   26153.82718505 -.00000004  00000+0  17840-4 0  9994
2 54773  53.1877  21.7790 0001790  91.2505 268.8692 15.08838356192778
STARLINK-5454           
1 54774U 22175S   26153.80461637  .00000306  00000+0  37357-4 0  9993
2 54774  53.1856   6.6846 0001514  95.8489 264.2675 15.08835170192980
STARLINK-5465           
1 54775U 22175T   26153.82349890 -.00000374  00000+0 -54187-5 0  9990
2 54775  53.1885  21.7564 0001305  85.9647 274.1494 15.08837228192774
STARLINK-5470           
1 54776U 22175U   26153.80139267  .00000485  00000+0  48577-4 0  9990
2 54776  53.1875  21.6261 0001290  64.8920 295.2206 15.08832705192770
STARLINK-5468           
1 54777U 22175V   26154.21725155  .00000247  00000+0  33602-4 0  9993
2 54777  53.1868  19.9471 0001147 103.6022 256.5098 15.08835067192832
STARLINK-5450           
1 54778U 22175W   26153.84146417  .00000540  00000+0  52042-4 0  9995
2 54778  53.1871   6.9033 0001546  70.3998 289.7161 15.08838255192989
STARLINK-5447           
1 54779U 22175X   26153.84514932 -.00000454  00000+0 -10422-4 0  9999
2 54779  53.1855   6.9253 0001396 107.3628 252.7517 15.08838801192982
STARLINK-5449           
1 54780U 22175Y   26153.82672693 -.00000084  00000+0  12805-4 0  9993
2 54780  53.1861   6.8078 0001401  92.4478 267.6675 15.08835961192983
STARLINK-5443           
1 54781U 22175Z   26153.83777183 -.00000378  00000+0 -56331-5 0  9995
2 54781  53.1871   6.8740 0001381  83.7928 276.3221 15.08835281192980
STARLINK-5439           
1 54783U 22175AB  26154.23135351  .00021893  00000+0  13811-2 0  9993
2 54783  53.1884   5.0840 0005796 207.7678 152.3006 15.09048524193041
STARLINK-5442           
1 54784U 22175AC  26153.81613028  .00002773  00000+0  19235-3 0  9992
2 54784  53.1870  21.7120 0001260  89.0027 271.1109 15.08825778192770
STARLINK-5440           
1 54785U 22175AD  26153.74943889 -.00000610  00000+0 -20215-4 0  9997
2 54785  53.1867 327.1214 0000981 112.6322 247.4773 15.08840128193538
STARLINK-5441           
1 54787U 22175AF  26153.81243826 -.00000169  00000+0  74589-5 0  9993
2 54787  53.1875  21.6889 0001591 115.5545 244.5611 15.08834303192772
STARLINK-5399           
1 54788U 22175AG  26153.82303686 -.00003429  00000+0 -19730-3 0  9994
2 54788  53.1862   6.7908 0002241 136.7152 223.4016 15.08858692192982
STARLINK-5446           
1 54789U 22175AH  26153.82256905  .00000732  00000+0  64094-4 0  9992
2 54789  53.1877 351.6919 0001534 105.9220 254.1941 15.08836593193199
STARLINK-5445           
1 54790U 22175AJ  26153.81567940 -.00001176  00000+0 -55822-4 0  9991
2 54790  53.1880   6.7451 0001271  91.4982 268.6155 15.08826513192980
STARLINK-5425           
1 54791U 22175AK  26153.83041389 -.00000404  00000+0 -72996-5 0  9993
2 54791  53.1886   6.8345 0001166  86.7913 273.3212 15.08834445192984
STARLINK-5431           
1 54792U 22175AL  26153.80507631 -.00001432  00000+0 -71875-4 0  9994
2 54792  53.1874  21.6440 0001391  90.9181 269.1970 15.08840901192772
STARLINK-5433           
1 54793U 22175AM  26153.83135109  .00002227  00000+0  15796-3 0  9995
2 54793  53.1887 356.8964 0001251  81.5756 278.5377 15.08842863193124
STARLINK-5436           
1 54795U 22175AP  26153.81935691 -.00001044  00000+0 -47520-4 0  9998
2 54795  53.1839   6.7678 0001218  86.1115 274.0016 15.08839497192982
STARLINK-5415           
1 54796U 22175AQ  26153.81197432 -.00004508  00000+0 -26508-3 0  9992
2 54796  53.1858   6.7198 0002400 142.4857 217.6303 15.08863828192981
STARLINK-5435           
1 54797U 22175AR  26153.82445472  .00000760  00000+0  65804-4 0  9991
2 54797  53.1874  21.7583 0001099  93.1732 266.9386 15.08837589192772
STARLINK-5420           
1 54798U 22175AS  26153.80923451 -.00001396  00000+0 -69640-4 0  9998
2 54798  53.1883 356.7465 0001449  80.5473 279.5682 15.08843041193123
STARLINK-5421           
1 54799U 22175AT  26153.82765118  .00000136  00000+0  26621-4 0  9996
2 54799  53.1866 356.8614 0000760  97.0728 263.0350 15.08839349193129
STARLINK-5428           
1 54800U 22175AU  26153.81704623  .00000720  00000+0  63313-4 0  9990
2 54800  53.1851  11.7198 0001243  96.3804 263.7329 15.08836367192910
STARLINK-5429           
1 54801U 22175AV  26153.79770708  .00000762  00000+0  65952-4 0  9992
2 54801  53.1874  21.5988 0001371  67.6070 292.5067 15.08832517192776
STARLINK-5426           
1 54802U 22175AW  26153.79279909  .00000139  00000+0  27262-4 0  9990
2 54802  53.2178 326.6036 0001349  85.6404 274.4742 15.08018371193543
STARLINK-5430           
1 54803U 22175AX  26153.80876003  .00000860  00000+0  72150-4 0  9998
2 54803  53.1876  21.6493 0001658  98.5371 261.5809 15.08832384192779
STARLINK-5422           
1 54804U 22175AY  26153.78987630  .00000576  00000+0  54262-4 0  9993
2 54804  53.1887   6.5903 0001237  84.3589 275.7544 15.08838375192989
STARLINK-5417           
1 54805U 22175AZ  26154.50025463  .00042353  00000+0  27247-2 0  9992
2 54805  53.2163   3.6839 0001316  98.3494  24.3911 15.08002027  5832
